,des,pha,neo,e,a,q,i,om,w,ma,tp,per,n,ad,moid,moid_jup,t_jup,rms,H
8394,2012 QJ2,False,True,0.444,2.21,1.23,28.9,182.0,154.0,135.0,2459752.559,1200.0,0.301,3.18,0.25,2.37,3.381,0.32,20.4
8395,2012 QJ14,False,True,0.525,2.47,1.17,15.9,146.0,162.0,5.22,2456140.919,1420.0,0.254,3.77,0.172,1.58,3.233,0.47,23.2
8396,2012 QJ45,False,True,0.353,1.82,1.18,10.1,132.0,256.0,160.0,2459803.708,894.0,0.403,2.46,0.25,3.05,3.953,0.43,20.95
8397,2012 QK14,False,True,0.485,2.5,1.29,4.43,144.0,210.0,282.0,2460512.064,1440.0,0.25,3.7,0.283,1.74,3.293,0.46,22.4
8398,2012 QK45,False,True,0.523,2.17,1.04,3.0,334.0,336.0,7.44,2456143.318,1170.0,0.308,3.31,0.0289,1.98,3.495,0.3,25.9
8399,2012 QL14,False,True,0.541,0.774,0.355,15.3,330.0,194.0,227.0,2460292.469,249.0,1.45,1.19,0.0729,3.79,7.352,0.38,24.48
8400,2012 QM14,False,True,0.387,1.22,0.749,0.919,4.03,225.0,52.2,2456086.911,494.0,0.729,1.7,0.00959,3.29,5.151,0.33,25.7
8401,2012 QO10,False,True,0.483,1.66,0.861,5.74,262.0,188.0,357.0,2460206.617,784.0,0.459,2.47,0.0678,2.77,4.113,0.46,18.91
8402,516986,False,True,0.355,1.75,1.13,15.7,133.0,272.0,237.0,2460491.163,848.0,0.424,2.38,0.31,3.16,4.013,0.4,19.49
8403,2012 QP17,False,True,0.632,2.87,1.06,14.2,166.0,262.0,79.4,2459808.001,1780.0,0.202,4.69,0.238,1.34,2.927,0.33,18.62
8404,2012 QQ10,True,True,0.468,1.94,1.03,3.96,65.5,228.0,56.5,2460046.248,984.0,0.366,2.84,0.0454,2.38,3.764,0.64,20.94
8405,2012 QQ50,False,True,0.505,1.72,0.85,9.42,244.0,202.0,277.0,2460390.251,822.0,0.438,2.58,0.0795,2.69,4.009,0.41,19.82
8406,2012 QR50,False,True,0.172,1.53,1.26,22.9,359.0,331.0,328.0,2460261.84,689.0,0.523,1.79,0.277,3.64,4.392,0.55,19.58
8407,2012 QV2,False,True,0.552,2.23,0.999,7.15,337.0,21.6,108.0,2459834.545,1210.0,0.296,3.46,0.0113,2.02,3.419,0.41,23.96
8408,2012 QV17,False,True,0.642,2.8,1.0,11.3,151.0,189.0,124.0,2459610.507,1710.0,0.21,4.6,0.00286,0.811,2.960,0.4,25.0
8409,2012 QW17,False,True,0.652,2.44,0.847,12.7,153.0,117.0,12.1,2456119.907,1390.0,0.259,4.02,0.0316,1.41,3.148,0.56,23.6
8410,2012 QX17,False,True,0.487,2.25,1.16,2.79,166.0,164.0,94.6,2459875.668,1240.0,0.291,3.35,0.146,2.03,3.457,0.43,21.9
8411,2012 QY14,False,True,0.477,2.4,1.25,3.19,241.0,122.0,342.0,2460267.221,1350.0,0.266,3.54,0.256,1.95,3.363,0.49,20.01
8412,2012 QY17,False,True,0.299,1.51,1.06,18.6,152.0,181.0,0.0242,2456165.454,680.0,0.529,1.97,0.0504,3.41,4.413,0.57,25.6
8413,2012 QZ16,False,True,0.504,1.54,0.763,6.12,152.0,259.0,257.0,2460399.927,697.0,0.517,2.31,0.00877,3.1,4.317,0.41,25.5
8414,2012 QZ17,False,True,0.561,2.51,1.1,2.33,150.0,192.0,279.0,2460528.782,1450.0,0.248,3.91,0.0939,1.5,3.223,0.66,25.3
8415,2012 RB3,False,True,0.49,2.12,1.08,45.7,165.0,140.0,16.9,2456128.394,1130.0,0.319,3.16,0.155,2.62,3.231,0.32,20.5
8416,523665,False,True,0.407,2.06,1.22,5.37,29.0,298.0,269.0,2460473.997,1080.0,0.335,2.89,0.226,2.48,3.675,0.4,20.05
8417,491567,False,True,0.528,1.57,0.743,15.9,113.0,35.3,89.7,2460020.731,722.0,0.499,2.41,0.138,2.66,4.203,0.47,18.1
8418,2012 RG15,True,True,0.454,1.08,0.588,48.9,337.0,247.0,8.93,2460190.369,408.0,0.882,1.57,0.0229,3.77,5.364,0.39,19.76
8419,2012 RH3,False,True,0.487,2.28,1.17,3.56,293.0,20.2,75.7,2459935.477,1260.0,0.286,3.4,0.159,1.92,3.434,0.42,21.3
8420,2012 RH10,False,True,0.469,1.15,0.608,13.9,352.0,123.0,279.0,2460301.604,448.0,0.804,1.68,0.0754,3.46,5.347,0.43,22.11
8421,2012 RH15,False,True,0.573,2.47,1.05,3.98,195.0,160.0,360.0,2456189.207,1410.0,0.255,3.88,0.0541,1.59,3.236,0.53,24.8
8422,2012 RJ10,False,True,0.622,2.17,0.821,4.38,348.0,294.0,16.1,2456134.359,1170.0,0.308,3.52,0.00911,1.68,3.404,0.43,25.4
8423,2012 RJ15,False,True,0.124,1.01,0.884,24.8,176.0,320.0,171.0,2460024.895,370.0,0.973,1.13,0.0888,3.86,5.952,0.55,23.6
8424,2012 RK15,False,True,0.667,2.32,0.773,0.419,34.2,29.1,21.4,2460123.665,1290.0,0.279,3.86,0.00429,1.5,3.239,0.46,23.3
8425,2012 RL2,False,True,0.411,1.75,1.03,3.21,122.0,239.0,267.0,2460418.645,845.0,0.426,2.47,0.0519,2.99,4.031,0.32,23.7
8426,2012 RL15,False,True,0.294,0.877,0.619,26.5,173.0,334.0,5.78,2460195.688,300.0,1.2,1.13,0.0772,3.87,6.638,0.54,24.3
8427,2012 RM2,False,True,0.519,2.05,0.988,4.85,192.0,112.0,280.0,2460437.736,1070.0,0.335,3.12,0.0586,2.18,3.606,0.43,22.8
8428,2012 RM15,False,True,0.25,1.09,0.821,8.01,171.0,89.8,281.0,2460291.85,418.0,0.861,1.37,0.00987,3.69,5.634,0.55,24.3
8429,2012 RN6,False,True,0.651,1.64,0.574,3.24,45.2,195.0,109.0,2459968.157,770.0,0.467,2.71,0.0535,2.31,4.017,0.43,21.1
8430,2012 RN15,False,True,0.254,1.39,1.04,29.2,173.0,158.0,13.9,2456163.39,597.0,0.603,1.74,0.0461,3.7,4.620,0.67,24.5
8431,2012 RO1,False,True,0.514,2.53,1.23,26.1,314.0,106.0,239.0,2460694.374,1470.0,0.245,3.83,0.453,2.3,3.131,0.54,19.7
8432,2012 RO15,False,True,0.363,1.62,1.03,12.5,356.0,324.0,131.0,2459926.019,754.0,0.477,2.21,0.0657,3.15,4.225,0.64,23.8
8433,2012 RO48,False,True,0.506,2.35,1.16,7.57,190.0,113.0,33.0,2460079.808,1320.0,0.273,3.54,0.194,1.81,3.361,0.58,20.94
8434,2012 RP15,False,True,0.584,2.59,1.08,4.36,161.0,220.0,223.0,2460782.688,1530.0,0.236,4.11,0.0932,1.36,3.148,0.38,23.0
8435,2012 RQ16,False,True,0.481,2.35,1.22,4.78,252.0,81.1,24.5,2460110.985,1320.0,0.273,3.48,0.228,1.95,3.386,0.38,20.87
8436,2012 RR16,False,True,0.296,1.38,0.972,3.85,170.0,146.0,301.0,2460296.842,592.0,0.608,1.79,0.00223,3.49,4.752,0.54,24.5
8437,523666,False,True,0.436,2.1,1.19,5.03,219.0,99.7,233.0,2460591.651,1110.0,0.324,3.02,0.196,2.35,3.617,0.36,21.21
8438,2012 RT16,False,True,0.295,0.934,0.658,10.4,172.0,54.4,157.0,2460056.99,330.0,1.09,1.21,0.012,3.77,6.366,0.66,26.9
8439,2012 RU16,False,True,0.613,2.49,0.963,0.404,311.0,357.0,10.5,2456149.876,1430.0,0.251,4.01,0.0031,1.28,3.185,0.61,25.5
8440,2012 RV16,False,True,0.671,2.77,0.912,20.2,7.58,69.1,126.0,2459613.046,1680.0,0.214,4.63,0.133,1.77,2.894,0.36,19.63
8441,2012 RW16,False,True,0.569,2.45,1.06,5.6,0.514,357.0,312.0,2460386.588,1400.0,0.257,3.84,0.0518,1.61,3.248,0.48,25.1
8442,2012 RX16,False,True,0.383,1.94,1.2,2.52,104.0,275.0,16.2,2460156.188,986.0,0.365,2.68,0.204,2.78,3.810,0.42,21.04
8443,2012 SA3,False,True,0.646,1.96,0.694,9.27,169.0,86.7,26.6,2456115.623,1000.0,0.36,3.22,0.026,1.94,3.582,0.32,22.32
8444,2012 SA22,False,True,0.493,2.55,1.29,29.2,265.0,126.0,259.0,2460617.422,1480.0,0.242,3.8,0.429,2.19,3.106,0.47,18.24
8445,2012 SA59,False,True,0.519,2.69,1.3,9.51,305.0,95.4,169.0,2459443.788,1610.0,0.223,4.09,0.356,1.6,3.147,0.38,19.1
8446,2012 SB3,False,True,0.365,1.48,0.938,2.69,173.0,134.0,23.3,2456148.013,656.0,0.549,2.02,0.00343,3.24,4.514,0.39,27.7
8447,2012 SB22,False,True,0.484,2.36,1.22,7.38,135.0,199.0,20.1,2460126.571,1330.0,0.272,3.5,0.211,1.89,3.373,0.46,19.38
8448,449089,False,True,0.632,1.32,0.486,12.6,344.0,168.0,350.0,2460215.174,553.0,0.651,2.15,0.186,2.86,4.708,0.56,20.14
8449,2012 SD22,True,True,0.573,1.96,0.839,7.91,140.0,314.0,322.0,2460305.927,1010.0,0.358,3.09,0.0179,2.17,3.647,0.43,20.06
8450,404108,False,True,0.687,2.5,0.783,20.8,1.14,157.0,194.0,2460869.026,1450.0,0.249,4.22,0.166,0.897,3.021,0.56,15.37
8451,2012 SF58,False,True,0.595,2.15,0.869,8.34,184.0,124.0,13.0,2456155.998,1150.0,0.313,3.42,0.0143,1.95,3.446,0.53,25.9
8452,2012 SG32,False,True,0.264,1.3,0.957,18.6,175.0,259.0,88.7,2460067.0,542.0,0.664,1.64,0.118,3.7,4.914,0.39,21.79
8453,2012 SG58,False,True,0.709,2.84,0.827,6.45,14.8,52.9,351.0,2456241.168,1750.0,0.205,4.86,0.00251,0.718,2.865,0.58,23.1
8454,2012 SH32,False,True,0.404,1.92,1.14,16.5,357.0,6.1,39.7,2460093.28,973.0,0.37,2.7,0.142,2.76,3.773,0.48,22.2
8455,2012 SH58,False,True,0.459,1.9,1.03,0.339,81.6,280.0,0.801,2456195.368,959.0,0.375,2.78,0.0268,2.68,3.809,0.99,27.0
8456,2012 SJ32,False,True,0.368,1.47,0.932,2.1,176.0,237.0,337.0,2456236.624,654.0,0.551,2.02,0.0094,3.37,4.519,0.33,25.1
8457,2012 SJ58,False,True,0.347,1.22,0.798,10.1,5.75,83.2,353.0,2460209.718,494.0,0.729,1.65,0.0149,3.6,5.153,0.57,26.1
8458,2012 SK8,False,True,0.226,1.34,1.04,23.5,185.0,119.0,64.4,2460099.156,567.0,0.635,1.64,0.128,3.69,4.788,0.38,20.59
8459,2012 SK50,False,True,0.189,1.3,1.05,8.82,188.0,163.0,14.5,2456183.72,541.0,0.666,1.54,0.0567,3.84,4.975,0.69,24.8
8460,2012 SL8,False,True,0.452,1.28,0.702,17.5,356.0,137.0,106.0,2460044.149,531.0,0.679,1.86,0.175,3.22,4.901,0.45,20.83
8461,2012 SL50,False,True,0.465,1.59,0.853,9.54,185.0,239.0,141.0,2459912.448,735.0,0.49,2.33,0.00165,3.06,4.231,0.56,26.45
8462,2012 SM8,False,True,0.34,1.54,1.02,4.7,177.0,208.0,347.0,2456215.484,699.0,0.515,2.07,0.032,3.4,4.395,0.36,26.3
8463,2012 SM50,False,True,0.135,1.2,1.04,16.4,1.44,63.8,310.0,2456262.304,483.0,0.746,1.37,0.106,3.82,5.236,0.35,24.5
8464,2012 SN30,False,True,0.451,1.26,0.691,46.5,198.0,9.0,30.0,2460157.549,516.0,0.697,1.83,0.307,3.13,4.737,0.55,18.93
8465,474674,False,True,0.492,2.55,1.3,26.6,327.0,105.0,225.0,2460759.281,1490.0,0.242,3.81,0.52,2.26,3.129,0.63,19.17
8466,505169,False,True,0.567,3.0,1.3,29.5,36.3,30.0,34.7,2460018.033,1890.0,0.19,4.7,0.348,1.16,2.825,0.41,17.79
8467,2012 SR56,False,True,0.36,1.3,0.83,2.31,360.0,285.0,195.0,2460448.27,539.0,0.668,1.76,0.00348,3.39,4.945,0.46,24.3
8468,2012 SS56,False,True,0.446,1.89,1.04,45.9,184.0,164.0,6.61,2456181.138,946.0,0.381,2.73,0.0542,2.79,3.510,0.33,22.0
8469,2012 ST9,False,True,0.663,1.96,0.661,7.69,174.0,308.0,320.0,2460310.895,1000.0,0.359,3.26,0.0656,1.9,3.566,0.45,19.82
8470,2012 SU9,False,True,0.36,0.93,0.595,0.494,323.0,264.0,181.0,2460363.361,327.0,1.1,1.26,0.00398,3.71,6.386,0.34,27.2
8471,2012 SV9,False,True,0.631,2.0,0.738,4.77,189.0,80.7,22.3,2456127.528,1030.0,0.349,3.26,0.0133,1.88,3.562,0.37,23.9
8472,2012 SV20,False,True,0.404,1.94,1.16,12.1,355.0,296.0,55.9,2460046.734,990.0,0.364,2.73,0.228,2.59,3.770,0.39,19.99
8473,482488,True,True,0.679,2.46,0.791,10.2,210.0,62.4,322.0,2460349.814,1410.0,0.255,4.13,0.00127,1.21,3.109,0.37,19.77
8474,2012 SW2,False,True,0.68,2.37,0.76,3.24,181.0,241.0,347.0,2460247.907,1330.0,0.27,3.98,0.00561,1.4,3.182,0.59,27.5
8475,2012 SW49,False,True,0.526,2.52,1.2,22.8,184.0,138.0,276.0,2460541.803,1460.0,0.246,3.85,0.262,1.9,3.155,0.49,22.1
